[{"OBJECT_NAME":"STARLINK-31340","OBJECT_ID":"2024-044U","EPOCH":"2026-03-09T04:05:32.623872","MEAN_MOTION":15.27572437,"ECCENTRICITY":9.712e-5,"INCLINATION":43.0023,"RA_OF_ASC_NODE":70.4062,"ARG_OF_PERICENTER":214.2306,"MEAN_ANOMALY":145.8483,"EPHEMERIS_TYPE":0,"CLASSIFICATION_TYPE":"U","NORAD_CAT_ID":59170,"ELEMENT_SET_NO":999,"REV_AT_EPOCH":11394,"BSTAR":-1.8164612e-5,"MEAN_MOTION_DOT":-7.62e-6,"MEAN_MOTION_DDOT":0},{"OBJECT_NAME":"CZ-4C DEB","OBJECT_ID":"2015-069C","EPOCH":"2026-03-07T10:00:21.558816","MEAN_MOTION":15.31048021,"ECCENTRICITY":0.00583916,"INCLINATION":97.4862,"RA_OF_ASC_NODE":135.8649,"ARG_OF_PERICENTER":162.5456,"MEAN_ANOMALY":197.781,"EPHEMERIS_TYPE":0,"CLASSIFICATION_TYPE":"U","NORAD_CAT_ID":42670,"ELEMENT_SET_NO":999,"REV_AT_EPOCH":51749,"BSTAR":0.00045809658,"MEAN_MOTION_DOT":0.00014416,"MEAN_MOTION_DDOT":0}]
